{"type": "FeatureCollection", "features": [ {"type": "Feature", "properties": {"norad_id": 52912, "name": "GAOFEN-12 03", "group": "resource", "lat": -9.921278028409207, "lon": -111.41899299021902, "alt_km": 633.990580261081, "timestamp": "2025-12-26T03:50:11.745620+00:00", "meta": {"OBJECT_NAME": "GAOFEN-12 03", "OBJECT_ID": "2022-069A", "EPOCH": "2025-12-25T19:46:00.162336", "MEAN_MOTION": 14.79639164, "ECCENTRICITY": 0.0001784, "INCLINATION": 97.8476, "RA_OF_ASC_NODE": 246.8703, "ARG_OF_PERICENTER": 47.775, "MEAN_ANOMALY": 312.3613, "EPHEMERIS_TYPE": 0, "CLASSIFICATION_TYPE": "U", "NORAD_CAT_ID": 52912, "ELEMENT_SET_NO": 999, "REV_AT_EPOCH": 18897, "BSTAR": 0.00014538, "MEAN_MOTION_DOT": 1.04e-05, "MEAN_MOTION_DDOT": 0}, "tle": {"line1": "1 52912U 22069A   25359.82361299  .00001040  00000+0  14538-3 0  9990", "line2": "2 52912  97.8476 246.8703 0001784  47.7750 312.3613 14.79639164188974"}}, "geometry": {"type": "Point", "coordinates": [-111.41899299021902, -9.921278028409207]}}, {"type": "Feature", "properties": {"norad_id": 54754, "name": "SWOT", "group": "resource", "lat": 75.27938094061955, "lon": 32.090272067603415, "alt_km": 885.5980731213676, "timestamp": "2025-12-26T03:50:11.745630+00:00", "meta": {"OBJECT_NAME": "SWOT", "OBJECT_ID": "2022-173A", "EPOCH": "2025-12-25T18:47:45.176064", "MEAN_MOTION": 14.00168821, "ECCENTRICITY": 4.25e-05, "INCLINATION": 77.6108, "RA_OF_ASC_NODE": 269.3831, "ARG_OF_PERICENTER": 81.6962, "MEAN_ANOMALY": 278.4238, "EPHEMERIS_TYPE": 0, "CLASSIFICATION_TYPE": "U", "NORAD_CAT_ID": 54754, "ELEMENT_SET_NO": 999, "REV_AT_EPOCH": 15488, "BSTAR": 8.536e-05, "MEAN_MOTION_DOT": 1.23e-06, "MEAN_MOTION_DDOT": 0}, "tle": {"line1": "1 54754U 22173A   25359.78316176  .00000123  00000+0  85360-4 0  9994", "line2": "2 54754  77.6108 269.3831 0000425  81.6962 278.4238 14.00168821154882"}}, "geometry": {"type": "Point", "coordinates": [32.090272067603415, 75.27938094061955]}}, {"type": "Feature", "properties": {"norad_id": 57654, "name": "GAOFEN-12 04", "group": "resource", "lat": 15.370190898074618, "lon": 97.90513689612376, "alt_km": 630.8968592693873, "timestamp": "2025-12-26T03:50:11.745641+00:00", "meta": {"OBJECT_NAME": "GAOFEN-12 04", "OBJECT_ID": "2023-123A", "EPOCH": "2025-12-25T20:36:16.970400", "MEAN_MOTION": 14.79737214, "ECCENTRICITY": 0.0001199, "INCLINATION": 97.9129, "RA_OF_ASC_NODE": 275.4173, "ARG_OF_PERICENTER": 80.215, "MEAN_ANOMALY": 279.9197, "EPHEMERIS_TYPE": 0, "CLASSIFICATION_TYPE": "U", "NORAD_CAT_ID": 57654, "ELEMENT_SET_NO": 999, "REV_AT_EPOCH": 12699, "BSTAR": 0.00019935, "MEAN_MOTION_DOT": 1.447e-05, "MEAN_MOTION_DDOT": 0}, "tle": {"line1": "1 57654U 23123A   25359.85852975  .00001447  00000+0  19935-3 0  9996", "line2": "2 57654  97.9129 275.4173 0001199  80.2150 279.9197 14.79737214126997"}}, "geometry": {"type": "Point", "coordinates": [97.90513689612376, 15.370190898074618]}}, {"type": "Feature", "properties": {"norad_id": 59065, "name": "PARS 1", "group": "resource", "lat": -75.44767839563171, "lon": 1.722182970606159, "alt_km": 452.120284303026, "timestamp": "2025-12-26T03:50:11.745651+00:00", "meta": {"OBJECT_NAME": "PARS 1", "OBJECT_ID": "2024-039Q", "EPOCH": "2025-12-25T21:56:22.007040", "MEAN_MOTION": 15.41273812, "ECCENTRICITY": 0.0011453, "INCLINATION": 97.4655, "RA_OF_ASC_NODE": 331.1297, "ARG_OF_PERICENTER": 31.7657, "MEAN_ANOMALY": 328.4278, "EPHEMERIS_TYPE": 0, "CLASSIFICATION_TYPE": "U", "NORAD_CAT_ID": 59065, "ELEMENT_SET_NO": 999, "REV_AT_EPOCH": 10191, "BSTAR": 0.00030446, "MEAN_MOTION_DOT": 0.00012614, "MEAN_MOTION_DDOT": 0}, "tle": {"line1": "1 59065U 24039Q   25359.91414360  .00012614  00000+0  30446-3 0  9998", "line2": "2 59065  97.4655 331.1297 0011453  31.7657 328.4278 15.41273812101912"}}, "geometry": {"type": "Point", "coordinates": [1.722182970606159, -75.44767839563171]}}, {"type": "Feature", "properties": {"norad_id": 59371, "name": "RESURS-P 4", "group": "resource", "lat": -8.908415894942875, "lon": -52.6387977531141, "alt_km": 473.4593634763387, "timestamp": "2025-12-26T03:50:11.745661+00:00", "meta": {"OBJECT_NAME": "RESURS-P 4", "OBJECT_ID": "2024-061A", "EPOCH": "2025-12-25T20:02:19.502880", "MEAN_MOTION": 15.32200484, "ECCENTRICITY": 7.93e-05, "INCLINATION": 97.2563, "RA_OF_ASC_NODE": 305.8984, "ARG_OF_PERICENTER": 85.0819, "MEAN_ANOMALY": 275.0514, "EPHEMERIS_TYPE": 0, "CLASSIFICATION_TYPE": "U", "NORAD_CAT_ID": 59371, "ELEMENT_SET_NO": 999, "REV_AT_EPOCH": 9721, "BSTAR": 0.00013741, "MEAN_MOTION_DOT": 4.196e-05, "MEAN_MOTION_DDOT": 0}, "tle": {"line1": "1 59371U 24061A   25359.83494795  .00004196  00000+0  13741-3 0  9999", "line2": "2 59371  97.2563 305.8984 0000793  85.0819 275.0514 15.32200484 97218"}}, "geometry": {"type": "Point", "coordinates": [-52.6387977531141, -8.908415894942875]}}, {"type": "Feature", "properties": {"norad_id": 59625, "name": "LEGION 1", "group": "resource", "lat": -4.201150456915027, "lon": -105.87233335722858, "alt_km": 518.8918743283593, "timestamp": "2025-12-26T03:50:11.745672+00:00", "meta": {"OBJECT_NAME": "LEGION 1", "OBJECT_ID": "2024-081A", "EPOCH": "2025-12-25T19:06:34.308288", "MEAN_MOTION": 15.16606525, "ECCENTRICITY": 0.0003621, "INCLINATION": 97.5193, "RA_OF_ASC_NODE": 74.3231, "ARG_OF_PERICENTER": 256.319, "MEAN_ANOMALY": 103.764, "EPHEMERIS_TYPE": 0, "CLASSIFICATION_TYPE": "U", "NORAD_CAT_ID": 59625, "ELEMENT_SET_NO": 999, "REV_AT_EPOCH": 9125, "BSTAR": 0.00025851, "MEAN_MOTION_DOT": 4.985e-05, "MEAN_MOTION_DDOT": 0}, "tle": {"line1": "1 59625U 24081A   25359.79623042  .00004985  00000+0  25851-3 0  9998", "line2": "2 59625  97.5193  74.3231 0003621 256.3190 103.7640 15.16606525 91256"}}, "geometry": {"type": "Point", "coordinates": [-105.87233335722858, -4.201150456915027]}}, {"type": "Feature", "properties": {"norad_id": 59626, "name": "LEGION 2", "group": "resource", "lat": 4.425386479931566, "lon": 74.18595124563281, "alt_km": 521.0351893356801, "timestamp": "2025-12-26T03:50:11.745682+00:00", "meta": {"OBJECT_NAME": "LEGION 2", "OBJECT_ID": "2024-081B", "EPOCH": "2025-12-25T18:18:58.059936", "MEAN_MOTION": 15.16619345, "ECCENTRICITY": 0.0005828, "INCLINATION": 97.5196, "RA_OF_ASC_NODE": 74.3784, "ARG_OF_PERICENTER": 237.5346, "MEAN_ANOMALY": 122.5324, "EPHEMERIS_TYPE": 0, "CLASSIFICATION_TYPE": "U", "NORAD_CAT_ID": 59626, "ELEMENT_SET_NO": 999, "REV_AT_EPOCH": 9125, "BSTAR": 0.00030017, "MEAN_MOTION_DOT": 5.803e-05, "MEAN_MOTION_DDOT": 0}, "tle": {"line1": "1 59626U 24081B   25359.76317199  .00005803  00000+0  30017-3 0  9999", "line2": "2 59626  97.5196  74.3784 0005828 237.5346 122.5324 15.16619345 91250"}}, "geometry": {"type": "Point", "coordinates": [74.18595124563281, 4.425386479931566]}}, {"type": "Feature", "properties": {"norad_id": 60182, "name": "ALOS-4 (DAICHI-4)", "group": "resource", "lat": 32.53040858008048, "lon": 89.72010572950313, "alt_km": 628.6827908596697, "timestamp": "2025-12-26T03:50:11.745692+00:00", "meta": {"OBJECT_NAME": "ALOS-4 (DAICHI-4)", "OBJECT_ID": "2024-123A", "EPOCH": "2025-12-25T19:34:21.067968", "MEAN_MOTION": 14.79473196, "ECCENTRICITY": 0.0001399, "INCLINATION": 97.9218, "RA_OF_ASC_NODE": 94.476, "ARG_OF_PERICENTER": 100.6814, "MEAN_ANOMALY": 259.4555, "EPHEMERIS_TYPE": 0, "CLASSIFICATION_TYPE": "U", "NORAD_CAT_ID": 60182, "ELEMENT_SET_NO": 999, "REV_AT_EPOCH": 8024, "BSTAR": 0.00031723, "MEAN_MOTION_DOT": 2.318e-05, "MEAN_MOTION_DDOT": 0}, "tle": {"line1": "1 60182U 24123A   25359.81552162  .00002318  00000+0  31723-3 0  9995", "line2": "2 60182  97.9218  94.4760 0001399 100.6814 259.4555 14.79473196 80247"}}, "geometry": {"type": "Point", "coordinates": [89.72010572950313, 32.53040858008048]}}, {"type": "Feature", "properties": {"norad_id": 60452, "name": "LEGION 3", "group": "resource", "lat": 26.780281693207456, "lon": 27.84704229662029, "alt_km": 521.1947042202828, "timestamp": "2025-12-26T03:50:11.745702+00:00", "meta": {"OBJECT_NAME": "LEGION 3", "OBJECT_ID": "2024-146A", "EPOCH": "2025-12-25T19:18:40.188384", "MEAN_MOTION": 15.15892089, "ECCENTRICITY": 0.001575, "INCLINATION": 45.0001, "RA_OF_ASC_NODE": 240.0876, "ARG_OF_PERICENTER": 268.1966, "MEAN_ANOMALY": 91.7109, "EPHEMERIS_TYPE": 0, "CLASSIFICATION_TYPE": "U", "NORAD_CAT_ID": 60452, "ELEMENT_SET_NO": 999, "REV_AT_EPOCH": 7571, "BSTAR": 0.00029593, "MEAN_MOTION_DOT": 5.517e-05, "MEAN_MOTION_DDOT": 0}, "tle": {"line1": "1 60452U 24146A   25359.80463181  .00005517  00000+0  29593-3 0  9997", "line2": "2 60452  45.0001 240.0876 0015750 268.1966  91.7109 15.15892089 75717"}}, "geometry": {"type": "Point", "coordinates": [27.84704229662029, 26.780281693207456]}}, {"type": "Feature", "properties": {"norad_id": 60453, "name": "LEGION 4", "group": "resource", "lat": 26.809160161432185, "lon": 119.64183973885777, "alt_km": 516.2729491710907, "timestamp": "2025-12-26T03:50:11.745713+00:00", "meta": {"OBJECT_NAME": "LEGION 4", "OBJECT_ID": "2024-146B", "EPOCH": "2025-12-25T19:18:48.805056", "MEAN_MOTION": 15.15965477, "ECCENTRICITY": 0.0008016, "INCLINATION": 45.0397, "RA_OF_ASC_NODE": 331.8764, "ARG_OF_PERICENTER": 24.1728, "MEAN_ANOMALY": 335.9526, "EPHEMERIS_TYPE": 0, "CLASSIFICATION_TYPE": "U", "NORAD_CAT_ID": 60453, "ELEMENT_SET_NO": 999, "REV_AT_EPOCH": 7456, "BSTAR": 0.00035149, "MEAN_MOTION_DOT": 6.604e-05, "MEAN_MOTION_DDOT": 0}, "tle": {"line1": "1 60453U 24146B   25359.80473154  .00006604  00000+0  35149-3 0  9991", "line2": "2 60453  45.0397 331.8764 0008016  24.1728 335.9526 15.15965477 74564"}}, "geometry": {"type": "Point", "coordinates": [119.64183973885777, 26.809160161432185]}}]}